{
  "type": "FeatureCollection",
  "features": [
    {
      "type": "Feature",
      "properties": {
        "norad_id": 33376,
        "name": "GALAXY 19 (G-19)",
        "group": "intelsat",
        "lat": -0.03277733393093685,
        "lon": -144.4951692131496,
        "alt_km": 35781.48314523659,
        "timestamp": "2025-12-26T14:28:47.356861+00:00",
        "meta_object_name": "GALAXY 19 (G-19)",
        "meta_object_id": "2008-045A",
        "meta_epoch": "2025-12-26T05:10:54.636096",
        "meta_mean_motion": 1.00271721,
        "meta_eccentricity": 0.00027832,
        "meta_inclination": 0.039,
        "meta_ra_of_asc_node": 264.6478,
        "meta_arg_of_pericenter": 17.7485,
        "meta_mean_anomaly": 153.2937,
        "meta_ephemeris_type": 0,
        "meta_classification_type": "U",
        "meta_norad_cat_id": 33376,
        "meta_element_set_no": 999,
        "meta_rev_at_epoch": 6316,
        "meta_bstar": 0,
        "meta_mean_motion_dot": -1.17e-06,
        "meta_mean_motion_ddot": 0,
        "tle_line1": "1 33376U 08045A   25360.21591014 -.00000117  00000+0  00000+0 0  9996",
        "tle_line2": "2 33376   0.0390 264.6478 0002783  17.7485 153.2937  1.00271721 63162"
      },
      "geometry": {
        "type": "Point",
        "coordinates": [
          -144.4951692131496,
          -0.03277733393093685
        ]
      }
    },
    {
      "type": "Feature",
      "properties": {
        "norad_id": 35493,
        "name": "FM-5",
        "group": "intelsat",
        "lat": -0.020060311614277317,
        "lon": -133.6138957438638,
        "alt_km": 35785.371541944616,
        "timestamp": "2025-12-26T14:28:47.356874+00:00",
        "meta_object_name": "FM-5",
        "meta_object_id": "2009-034A",
        "meta_epoch": "2025-12-25T21:13:02.840160",
        "meta_mean_motion": 1.00269478,
        "meta_eccentricity": 7.9e-05,
        "meta_inclination": 0.0148,
        "meta_ra_of_asc_node": 303.8545,
        "meta_arg_of_pericenter": 217.7513,
        "meta_mean_anomaly": 165.1409,
        "meta_ephemeris_type": 0,
        "meta_classification_type": "U",
        "meta_norad_cat_id": 35493,
        "meta_element_set_no": 999,
        "meta_rev_at_epoch": 4490,
        "meta_bstar": 0,
        "meta_mean_motion_dot": -1.78e-06,
        "meta_mean_motion_ddot": 0,
        "tle_line1": "1 35493U 09034A   25359.88406065 -.00000178  00000+0  00000+0 0  9996",
        "tle_line2": "2 35493   0.0148 303.8545 0000790 217.7513 165.1409  1.00269478 44909"
      },
      "geometry": {
        "type": "Point",
        "coordinates": [
          -133.6138957438638,
          -0.020060311614277317
        ]
      }
    },
    {
      "type": "Feature",
      "properties": {
        "norad_id": 36097,
        "name": "INTELSAT 14 (IS-14)",
        "group": "intelsat",
        "lat": -0.025958214438527374,
        "lon": -92.47077578729116,
        "alt_km": 35775.38471441536,
        "timestamp": "2025-12-26T14:28:47.356886+00:00",
        "meta_object_name": "INTELSAT 14 (IS-14)",
        "meta_object_id": "2009-064A",
        "meta_epoch": "2025-12-26T02:09:38.712960",
        "meta_mean_motion": 1.00271887,
        "meta_eccentricity": 0.00026122,
        "meta_inclination": 0.0118,
        "meta_ra_of_asc_node": 37.0815,
        "meta_arg_of_pericenter": 244.4887,
        "meta_mean_anomaly": 160.6814,
        "meta_ephemeris_type": 0,
        "meta_classification_type": "U",
        "meta_norad_cat_id": 36097,
        "meta_element_set_no": 999,
        "meta_rev_at_epoch": 5887,
        "meta_bstar": 0,
        "meta_mean_motion_dot": -2.52e-06,
        "meta_mean_motion_ddot": 0,
        "tle_line1": "1 36097U 09064A   25360.09003140 -.00000252  00000+0  00000+0 0  9995",
        "tle_line2": "2 36097   0.0118  37.0815 0002612 244.4887 160.6814  1.00271887 58877"
      },
      "geometry": {
        "type": "Point",
        "coordinates": [
          -92.47077578729116,
          -0.025958214438527374
        ]
      }
    },
    {
      "type": "Feature",
      "properties": {
        "norad_id": 36106,
        "name": "INTELSAT 15 (IS-15)",
        "group": "intelsat",
        "lat": 0.0009611362359175758,
        "lon": 37.712383098697565,
        "alt_km": 35790.15378658792,
        "timestamp": "2025-12-26T14:28:47.356898+00:00",
        "meta_object_name": "INTELSAT 15 (IS-15)",
        "meta_object_id": "2009-067A",
        "meta_epoch": "2025-12-26T03:37:38.694720",
        "meta_mean_motion": 1.00270174,
        "meta_eccentricity": 0.00024301,
        "meta_inclination": 0.0154,
        "meta_ra_of_asc_node": 51.9638,
        "meta_arg_of_pericenter": 235.3713,
        "meta_mean_anomaly": 307.1291,
        "meta_ephemeris_type": 0,
        "meta_classification_type": "U",
        "meta_norad_cat_id": 36106,
        "meta_element_set_no": 999,
        "meta_rev_at_epoch": 3949,
        "meta_bstar": 0,
        "meta_mean_motion_dot": -1.63e-06,
        "meta_mean_motion_ddot": 0,
        "tle_line1": "1 36106U 09067A   25360.15114230 -.00000163  00000+0  00000+0 0  9990",
        "tle_line2": "2 36106   0.0154  51.9638 0002430 235.3713 307.1291  1.00270174 39493"
      },
      "geometry": {
        "type": "Point",
        "coordinates": [
          37.712383098697565,
          0.0009611362359175758
        ]
      }
    },
    {
      "type": "Feature",
      "properties": {
        "norad_id": 36131,
        "name": "DIRECTV 12",
        "group": "intelsat",
        "lat": 0.016428748017395047,
        "lon": -150.17426719839406,
        "alt_km": 35786.10691910538,
        "timestamp": "2025-12-26T14:28:47.356910+00:00",
        "meta_object_name": "DIRECTV 12",
        "meta_object_id": "2009-075A",
        "meta_epoch": "2025-12-25T14:17:27.635136",
        "meta_mean_motion": 1.00273448,
        "meta_eccentricity": 5.26e-05,
        "meta_inclination": 0.0362,
        "meta_ra_of_asc_node": 165.2057,
        "meta_arg_of_pericenter": 147.3669,
        "meta_mean_anomaly": 253.4343,
        "meta_ephemeris_type": 0,
        "meta_classification_type": "U",
        "meta_norad_cat_id": 36131,
        "meta_element_set_no": 999,
        "meta_rev_at_epoch": 4481,
        "meta_bstar": 0,
        "meta_mean_motion_dot": -8.2e-07,
        "meta_mean_motion_ddot": 0,
        "tle_line1": "1 36131U 09075A   25359.59545874 -.00000082  00000+0  00000+0 0  9995",
        "tle_line2": "2 36131   0.0362 165.2057 0000526 147.3669 253.4343  1.00273448 44812"
      },
      "geometry": {
        "type": "Point",
        "coordinates": [
          -150.17426719839406,
          0.016428748017395047
        ]
      }
    },
    {
      "type": "Feature",
      "properties": {
        "norad_id": 36397,
        "name": "INTELSAT 16 (IS-16)",
        "group": "intelsat",
        "lat": -0.02319094290585174,
        "lon": -123.6596328425793,
        "alt_km": 35779.230534444556,
        "timestamp": "2025-12-26T14:28:47.356922+00:00",
        "meta_object_name": "INTELSAT 16 (IS-16)",
        "meta_object_id": "2010-006A",
        "meta_epoch": "2025-12-26T06:13:44.738112",
        "meta_mean_motion": 1.00271813,
        "meta_eccentricity": 0.00020061,
        "meta_inclination": 0.0108,
        "meta_ra_of_asc_node": 2.696,
        "meta_arg_of_pericenter": 269.5077,
        "meta_mean_anomaly": 200.0576,
        "meta_ephemeris_type": 0,
        "meta_classification_type": "U",
        "meta_norad_cat_id": 36397,
        "meta_element_set_no": 999,
        "meta_rev_at_epoch": 5792,
        "meta_bstar": 0,
        "meta_mean_motion_dot": -2.23e-06,
        "meta_mean_motion_ddot": 0,
        "tle_line1": "1 36397U 10006A   25360.25954558 -.00000223  00000+0  00000+0 0  9990",
        "tle_line2": "2 36397   0.0108   2.6960 0002006 269.5077 200.0576  1.00271813 57922"
      },
      "geometry": {
        "type": "Point",
        "coordinates": [
          -123.6596328425793,
          -0.02319094290585174
        ]
      }
    },
    {
      "type": "Feature",
      "properties": {
        "norad_id": 37185,
        "name": "XM-5",
        "group": "intelsat",
        "lat": -0.05985809938466162,
        "lon": -162.64086949853785,
        "alt_km": 35779.822228716446,
        "timestamp": "2025-12-26T14:28:47.356934+00:00",
        "meta_object_name": "XM-5",
        "meta_object_id": "2010-053A",
        "meta_epoch": "2025-12-26T05:44:38.581152",
        "meta_mean_motion": 1.00272229,
        "meta_eccentricity": 0.00020428,
        "meta_inclination": 0.0642,
        "meta_ra_of_asc_node": 269.3131,
        "meta_arg_of_pericenter": 243.7606,
        "meta_mean_anomaly": 272.8803,
        "meta_ephemeris_type": 0,
        "meta_classification_type": "U",
        "meta_norad_cat_id": 37185,
        "meta_element_set_no": 999,
        "meta_rev_at_epoch": 5574,
        "meta_bstar": 0,
        "meta_mean_motion_dot": -1e-08,
        "meta_mean_motion_ddot": 0,
        "tle_line1": "1 37185U 10053A   25360.23933543 -.00000001  00000+0  00000+0 0  9991",
        "tle_line2": "2 37185   0.0642 269.3131 0002042 243.7606 272.8803  1.00272229 55745"
      },
      "geometry": {
        "type": "Point",
        "coordinates": [
          -162.64086949853785,
          -0.05985809938466162
        ]
      }
    }
  ]
}